satname,norad_id,inclination_deg,eccentricity,mean_motion_rev_per_day,perigee_km,apogee_km,l1,l2
STARLINK-1454,45671,53.0523,0.0008323,15.48653032,415.00682215715733,426.3241087411434,1 45671U 20035Q   26058.49740212  .00077378  00000+0  14160-2 0  9998,2 45671  53.0523 101.7498 0008323  18.9456 341.1859 15.48653032317337
STARLINK-1456,45673,53.0504,0.0001724,15.49371824,417.3907964839391,419.7342984879124,1 45673U 20035S   26058.49327365  .00032274  00000+0  58460-3 0  9998,2 45673  53.0504  95.2316 0001724 100.9658 259.1544 15.49371824317446
STARLINK-1457,45674,53.0471,0.0009943,15.75842937,335.55151109247436,348.91564001902407,1 45674U 20035T   26058.91668981  .00108141  00000+0  68045-3 0  9995,2 45674  53.0471  71.2683 0009943  30.3247  14.8494 15.75842937  5959
STARLINK-1458,45675,53.0532,0.0005851,15.41663522,437.2093352667098,445.18932263884926,1 45675U 20035U   26058.82938748  .00074613  00000+0  17349-2 0  9993,2 45675  53.0532 102.2791 0005851  41.9630 318.1821 15.41663522317337
STARLINK-1460,45676,53.1109,0.0001349,15.20053862,504.7493669882033,506.60662027348553,1 45676U 20035V   26058.91668981  .00058980  00000+0  26931-2 0  9999,2 45676  53.1109 109.9669 0001349 108.1376  11.7055 15.20053862  5783
STARLINK-1392,45677,53.1228,0.0001288,15.22464132,497.52502566627754,499.29642436024005,1 45677U 20035W   26058.91668981  .01389747  00000+0  54471-1 0  9998,2 45677  53.1228 110.0191 0001288  60.6072 330.4055 15.22464132  5730
STARLINK-1394,45679,53.0505,0.0001872,15.47946188,421.4618917832995,424.0081382657263,1 45679U 20035Y   26058.48603397  .00124960  00000+0  23271-2 0  9990,2 45679  53.0505  85.4454 0001872  85.1116 275.0105 15.47946188317577
STARLINK-1402,45685,53.0495,0.0001319,15.42988509,436.3959047347107,438.1938156594297,1 45685U 20035AE  26058.29718542  .00061931  00000+0  13821-2 0  9993,2 45685  53.0495  72.8049 0001319 239.9822 120.1052 15.42988509317749
STARLINK-1404,45686,53.1614,0.0001409,15.30199615,474.2505814916158,476.1818564287196,1 45686U 20035AF  26058.50676691  .00001406  00000+0  59604-4 0  9998,2 45686  53.1614  96.9948 0001409  88.0746 272.0416 15.30199615317411
STARLINK-1413,45689,53.1608,0.0001335,15.30187746,474.3367305128668,476.16658528452535,1 45689U 20035AJ  26058.57839507 -.00000883  00000+0 -17705-4 0  9991,2 45689  53.1608  96.5435 0001335  78.3265 281.7886 15.30187746317342
STARLINK-1417,45693,53.0511,0.0002913,15.11862628,528.5073287653213,532.5323122289428,1 45693U 20035AN  26058.48576147  .00020815  00000+0  12167-2 0  9994,2 45693  53.0511 100.5335 0002913 208.8467 151.2364 15.11862628317352
STARLINK-1420,45695,53.0543,0.0003219,15.51486958,410.1980045905211,414.5697419287262,1 45695U 20035AQ  26058.91668981  .00140154  00000+0  22984-2 0  9999,2 45695  53.0543  69.4867 0003219  57.3447  74.7454 15.51486958  5936
STARLINK-1422,45696,53.1614,0.0001285,15.30208854,474.30798075488565,476.06928544259245,1 45696U 20035AR  26058.52043610  .00001929  00000+0  77218-4 0  9991,2 45696  53.1614  96.8161 0001285  87.0304 273.0844 15.30208854317411
STARLINK-1351,45697,53.0546,0.0002731,15.50121134,414.5164950927856,418.22765594983593,1 45697U 20035AS  26058.73278058  .00033817  00000+0  59610-3 0  9997,2 45697  53.0546  69.4886 0002731  73.0760 287.0547 15.50121134317820
STARLINK-1398,45699,53.0396,0.0004554,15.88832622,302.51095133453873,308.5984577390318,1 45699U 20035AU  26058.91668981  .00219491  00000+0  74219-3 0  9993,2 45699  53.0396 349.1185 0004554 106.8029 284.3965 15.88832622  6048
STARLINK-1400,45700,53.0523,0.0007164,15.48415277,416.49024553333766,426.23256684972876,1 45700U 20035AV  26058.81922131  .00076366  00000+0  14099-2 0  9996,2 45700  53.0523  70.2817 0007164  52.6419 307.5239 15.48415277317819
STARLINK-1403,45701,53.0552,0.0001792,15.06377272,546.040181916208,548.5222518051314,1 45701U 20035AW  26058.78887133 -.00003221  00000+0 -19752-3 0  9999,2 45701  53.0552  81.0674 0001792  85.3243 274.7951 15.06377272317656
STARLINK-1407,45703,53.0357,0.0011508,15.57349059,387.53788033745786,403.12769840467354,1 45703U 20035AY  26058.82370527  .00105375  00000+0  13994-2 0  9992,2 45703  53.0357   3.7330 0011508  66.0808 294.1407 15.57349059318752
STARLINK-1411,45706,53.0458,0.0005467,15.59844545,384.40748986317885,391.8057006102099,1 45706U 20035BB  26058.64127700  .00086524  00000+0  10517-2 0  9990,2 45706  53.0458  30.4566 0005467  82.8606 277.3028 15.59844545318354
STARLINK-1423,45710,53.0519,0.000641,15.50524095,410.84029593646846,419.5493473318029,1 45710U 20035BF  26058.73703786  .00101745  00000+0  17364-2 0  9999,2 45710  53.0519  69.8909 0006410  62.7573 297.4088 15.50524095317807
STARLINK-1433,45711,53.0516,0.0006675,15.52614309,404.56593879291904,413.6268954047464,1 45711U 20035BG  26058.64615073  .00085082  00000+0  13515-2 0  9990,2 45711  53.0516  69.5183 0006675  56.9840 303.1810 15.52614309317809
STARLINK-1434,45712,53.0573,0.0004671,15.2553339,485.9765071468264,492.3919586425982,1 45712U 20035BH  26058.74538017  .00041676  00000+0  16261-2 0  9996,2 45712  53.0573  66.0539 0004671  48.9415 311.1985 15.25533390317872
STARLINK-1465,45731,53.0517,0.0002688,15.48100361,420.4555287213643,424.11143477235055,1 45731U 20038B   26058.83793123  .00055751  00000+0  10464-2 0  9999,2 45731  53.0517 270.3668 0002688 178.3443 181.7574 15.48100361314852
STARLINK-1471,45735,53.0454,0.0002102,15.48238339,420.4500795707172,423.3088064833655,1 45735U 20038F   26058.77191389  .00029549  00000+0  55772-3 0  9990,2 45735  53.0454 189.5154 0002102 182.6948 177.4048 15.48238339315997
STARLINK-1480,45741,53.0477,0.0009169,15.46513467,420.6951057468614,433.17424618624864,1 45741U 20038M   26058.58876478  .00053561  00000+0  10613-2 0  9990,2 45741  53.0477 265.5136 0009169 140.1149 220.0532 15.46513467314916
STARLINK-1500,45744,53.0339,0.0002991,15.34114424,461.5058146990086,465.5985131568714,1 45744U 20038Q   26058.77748765  .00026401  00000+0  79681-3 0  9995,2 45744  53.0339 239.2263 0002991 188.1901 171.9052 15.34114424315299
STARLINK-1504,45746,53.0221,0.0002145,15.52385442,408.30748714535,411.2194964563332,1 45746U 20038S   26058.77473024  .00032803  00000+0  53383-3 0  9994,2 45746  53.0221 189.9917 0002145 156.6648 203.4458 15.52385442315973
STARLINK-1506,45747,53.0758,0.0003008,15.25747342,486.476728459118,490.6077226812213,1 45747U 20038T   26058.83557879  .00007374  00000+0  29817-3 0  9993,2 45747  53.0758 247.9284 0003008 183.7971 176.3005 15.25747342315180
STARLINK-1464,45751,53.0514,0.000343,15.42714295,435.7644846081057,440.4404248740575,1 45751U 20038X   26058.52946004  .00031861  00000+0  72489-3 0  9997,2 45751  53.0514 252.8855 0003430 176.3578 183.7452 15.42714295315081
STARLINK-1477,45754,53.0483,0.0001867,15.13583985,523.9919434521144,526.569679662949,1 45754U 20038AA  26058.00488438  .00019516  00000+0  10887-2 0  9991,2 45754  53.0483 261.5009 0001867  95.8114 264.3091 15.13583985314914
STARLINK-1478,45755,53.0497,0.0005808,15.52818758,404.558972548929,412.44233084514144,1 45755U 20038AB  26058.79276594  .00085380  00000+0  13465-2 0  9993,2 45755  53.0497 245.6561 0005808 170.3045 189.8077 15.52818758315195
STARLINK-1484,45756,53.0007,0.000691,15.94856188,284.1083377475288,293.3219273947425,1 45756U 20038AC  26058.91668981  .00298102  45873-4  76084-3 0  9990,2 45756  53.0007 107.0272 0006910  18.4180 115.5684 15.94856188  6057
STARLINK-1493,45759,53.0519,0.0001553,15.45308727,429.4137131482521,431.52846682100153,1 45759U 20038AF  26058.77136477  .00021266  00000+0  44687-3 0  9994,2 45759  53.0519 252.0174 0001553 185.8830 174.2158 15.45308727315103
STARLINK-1494,45760,53.047,0.0003014,15.71555118,352.42269329382634,356.48109788008514,1 45760U 20038AG  26058.77378419  .00085186  00000+0  64871-3 0  9998,2 45760  53.0470 200.8394 0003014 319.2626  40.8166 15.71555118315830
STARLINK-1502,45764,53.0545,8.33e-05,15.45248201,430.08170838249225,431.2160521101423,1 45764U 20038AL  26058.53818566  .00042550  00000+0  88471-3 0  9998,2 45764  53.0545 254.4679 0000833 176.8540 183.2472 15.45248201315066
STARLINK-1470,45772,53.0411,0.0001198,15.26885886,484.3060912059018,485.95052957427197,1 45772U 20038AU  26058.79443614  .00038930  00000+0  14600-2 0  9992,2 45772  53.0411 220.2165 0001198 122.4479 237.6635 15.26885886315566
STARLINK-1482,45773,53.1607,0.0001145,15.30211434,474.39622486594,475.9656346718575,1 45773U 20038AV  26058.75314389  .00004237  00000+0  15504-3 0  9993,2 45773  53.1607 237.1728 0001145  63.3127 296.7991 15.30211434315324
STARLINK-1496,45780,53.0511,0.0005893,15.46085738,424.1787446775779,432.200681341531,1 45780U 20038BC  26058.75818475  .00069293  00000+0  13892-2 0  9996,2 45780  53.0511 225.2700 0005893 169.0596 191.0539 15.46085738315475
STARLINK-1513,45786,53.1553,0.0002159,15.30191159,473.7618227677567,476.72111158988446,1 45786U 20038BJ  26058.76266156 -.00014076  00000+0 -46409-3 0  9998,2 45786  53.1553 237.2571 0002159  87.2499 272.8748 15.30191159315324
STARLINK-1522,46027,53.055,0.0001333,15.06378695,546.3536977974472,548.2000131313134,1 46027U 20055A   26058.67736250 -.00000280  00000+0  81935-7 0  9991,2 46027  53.0550 171.5651 0001333  90.9466 269.1675 15.06378695307375
STARLINK-1523,46028,53.0563,0.0001299,15.06399539,546.3133678760296,548.1125737984521,1 46028U 20055B   26058.29400895  .00000300  00000+0  39053-4 0  9996,2 46028  53.0563 173.2897 0001299 105.5816 254.5316 15.06399539307330
STARLINK-1526,46029,53.0553,0.0003246,15.06701343,544.0404705781457,548.5358073783691,1 46029U 20055C   26058.75078088  .00039968  00000+0  26651-2 0  9993,2 46029  53.0553 171.2315 0003246  66.6982 293.4348 15.06701343307391
STARLINK-1555,46032,53.0556,0.0001395,15.06397714,546.2524771066865,548.1846513090995,1 46032U 20055F   26058.73633524  .00001639  00000+0  12892-3 0  9994,2 46032  53.0556 171.3011 0001395  89.1858 270.9291 15.06397714307397
